STARLINK-31992          
1 60023U 24111H   26068.23458478  .00000925  00000+0  43348-4 0  9994
2 60023  53.1600  77.7534 0000957  85.9323 274.1787 15.30191840 98973
ARCSTONE                
1 64540U 25135N   26068.88991918  .00026427  00000+0  94900-3 0  9995
2 64540  97.4495 185.9194 0004120 166.7863 193.3485 15.28638458 39847
